{
  "norad_id": 57964,
  "name": "STARLINK-30396",
  "history": [
    {
      "epoch": "2026-03-28T17:19:48.063648Z",
      "apogee_km": 484.0606392534146,
      "perigee_km": 482.0107952924018,
      "latitude_deg": -2.2786413650463012e-05,
      "longitude_deg": 142.73785610737067,
      "height_km": 482.659391378092,
      "semi_major_axis_km": 6861.172717272908,
      "eccentricity": 0.00014938,
      "inclination_deg": 43.0011,
      "raan_deg": 228.8266,
      "arg_perigee_deg": 278.5986,
      "mean_anomaly_deg": 81.4696,
      "mean_motion_rev_day": 15.27584468
    },
    {
      "epoch": "2026-03-30T14:50:21.053472Z",
      "apogee_km": 484.32377241567247,
      "perigee_km": 481.76798179395064,
      "latitude_deg": 5.797545709741823e-06,
      "longitude_deg": 167.5232351568292,
      "height_km": 482.9279782136882,
      "semi_major_axis_km": 6861.182877104811,
      "eccentricity": 0.00018625,
      "inclination_deg": 43.0003,
      "raan_deg": 218.1184,
      "arg_perigee_deg": 265.2861,
      "mean_anomaly_deg": 94.7778,
      "mean_motion_rev_day": 15.27581075
    },
    {
      "epoch": "2026-03-30T17:58:39.576288Z",
      "apogee_km": 483.93428131342534,
      "perigee_km": 482.1422795536819,
      "latitude_deg": 2.807936734947352e-05,
      "longitude_deg": 119.5769879353696,
      "height_km": 482.9811588112739,
      "semi_major_axis_km": 6861.175280433554,
      "eccentricity": 0.00013059,
      "inclination_deg": 43.0005,
      "raan_deg": 217.3782,
      "arg_perigee_deg": 259.3073,
      "mean_anomaly_deg": 100.7632,
      "mean_motion_rev_day": 15.27583612
    },
    {
      "epoch": "2026-03-31T14:22:42.502656Z",
      "apogee_km": 484.43665285216775,
      "perigee_km": 481.7360753360599,
      "latitude_deg": -1.8477247976869273e-05,
      "longitude_deg": 167.93131460186225,
      "height_km": 482.7214459779243,
      "semi_major_axis_km": 6861.223364094113,
      "eccentricity": 0.0001968,
      "inclination_deg": 42.9983,
      "raan_deg": 212.5826,
      "arg_perigee_deg": 276.032,
      "mean_anomaly_deg": 84.0307,
      "mean_motion_rev_day": 15.27567554
    },
    {
      "epoch": "2026-04-01T01:21:48.023712Z",
      "apogee_km": 484.24895313496927,
      "perigee_km": 481.8840335148907,
      "latitude_deg": -1.0033478054689153e-05,
      "longitude_deg": 0.1198873850899619,
      "height_km": 482.8202332427791,
      "semi_major_axis_km": 6861.20349332493,
      "eccentricity": 0.00017234,
      "inclination_deg": 43.0004,
      "raan_deg": 209.9953,
      "arg_perigee_deg": 271.1277,
      "mean_anomaly_deg": 88.9377,
      "mean_motion_rev_day": 15.2757419
    },
    {
      "epoch": "2026-04-02T15:01:32.883456Z",
      "apogee_km": 483.8617298736308,
      "perigee_km": 482.30011667429335,
      "latitude_deg": 4.490416028066369e-06,
      "longitude_deg": 144.7726465600666,
      "height_km": 482.983651994891,
      "semi_major_axis_km": 6861.217923273962,
      "eccentricity": 0.0001138,
      "inclination_deg": 43.0005,
      "raan_deg": 201.1317,
      "arg_perigee_deg": 260.6969,
      "mean_anomaly_deg": 99.3754,
      "mean_motion_rev_day": 15.27569371
    }
  ]
}